[{"OBJECT_NAME":"STARLINK-6056","OBJECT_ID":"2023-078AY","EPOCH":"2026-03-09T22:48:38.550816","MEAN_MOTION":14.98319506,"ECCENTRICITY":0.00026172,"INCLINATION":70.0016,"RA_OF_ASC_NODE":343.6264,"ARG_OF_PERICENTER":258.7563,"MEAN_ANOMALY":101.3302,"EPHEMERIS_TYPE":0,"CLASSIFICATION_TYPE":"U","NORAD_CAT_ID":56813,"ELEMENT_SET_NO":999,"REV_AT_EPOCH":15272,"BSTAR":7.2557614e-5,"MEAN_MOTION_DOT":7.73e-6,"MEAN_MOTION_DDOT":0},{"OBJECT_NAME":"GB 1","OBJECT_ID":"1983-056C","EPOCH":"2026-03-09T15:35:32.481600","MEAN_MOTION":13.78372102,"ECCENTRICITY":0.07333204,"INCLINATION":63.3105,"RA_OF_ASC_NODE":168.7083,"ARG_OF_PERICENTER":129.9554,"MEAN_ANOMALY":236.8304,"EPHEMERIS_TYPE":0,"CLASSIFICATION_TYPE":"U","NORAD_CAT_ID":14143,"ELEMENT_SET_NO":999,"REV_AT_EPOCH":33291,"BSTAR":0.00056594387,"MEAN_MOTION_DOT":4.698e-5,"MEAN_MOTION_DDOT":0}]
